[{"OBJECT_NAME":"CELESTIS-17 & SHERPA-FX1","OBJECT_ID":"2021-006CB","EPOCH":"2026-03-09T15:26:05.078112","MEAN_MOTION":15.30994801,"ECCENTRICITY":0.000663,"INCLINATION":97.2397,"RA_OF_ASC_NODE":112.1052,"ARG_OF_PERICENTER":178.1385,"MEAN_ANOMALY":181.9882,"EPHEMERIS_TYPE":0,"CLASSIFICATION_TYPE":"U","NORAD_CAT_ID":47486,"ELEMENT_SET_NO":999,"REV_AT_EPOCH":28406,"BSTAR":0.00024301,"MEAN_MOTION_DOT":7.207e-5,"MEAN_MOTION_DDOT":0},{"OBJECT_NAME":"STARLINK-32742","OBJECT_ID":"2025-008U","EPOCH":"2026-03-09T22:11:51.632160","MEAN_MOTION":15.27598516,"ECCENTRICITY":0.00015553,"INCLINATION":42.9999,"RA_OF_ASC_NODE":276.3047,"ARG_OF_PERICENTER":25.5196,"MEAN_ANOMALY":334.5732,"EPHEMERIS_TYPE":0,"CLASSIFICATION_TYPE":"U","NORAD_CAT_ID":62605,"ELEMENT_SET_NO":999,"REV_AT_EPOCH":6565,"BSTAR":0.0011855461,"MEAN_MOTION_DOT":0.00032524,"MEAN_MOTION_DDOT":0}]
